AEROCUBE 12A            
1 43556U 18046C   22251.07866992  .00021396  00000+0  50200-3 0  9991
2 43556  51.6369 140.2653 0005590 343.2275  16.8525 15.41979120232059
AEROCUBE 12B            
1 43557U 18046D   22251.07006492  .00015963  00000+0  41059-3 0  9998
2 43557  51.6372 146.1270 0005905 338.7349  21.3389 15.39397867231928
LEMUR-2-VU              
1 43558U 18046E   22251.83806151  .00041232  00000+0  68290-3 0  9997
2 43558  51.6362 113.5779 0004808 348.1618  11.9258 15.51742455232477
LEMUR-2-TOMHENDERSON    
1 43561U 18046H   22251.89376776  .00038879  00000+0  69168-3 0  9990
2 43561  51.6381 117.6616 0004376  14.6950 345.4165 15.49753402231989
ISS DEB (SEDA-AP)       
1 43870U 98067PU  22251.86798092  .00429007  10050-3  50057-3 0  9994
2 43870  51.6229 149.8022 0003367 206.1053 153.9790 16.08157630212210
STPSAT-4                
1 45043U 98067QY  22251.90565359  .00257051  36771-4  66632-3 0  9994
2 45043  51.6297 222.0227 0003640  99.3984 260.7436 15.94597064148720
SORTIE                  
1 45264U 98067RH  22251.37176299  .00512412  13779-3  65643-3 0  9999
2 45264  51.6346 216.2104 0002190 133.0298 227.0898 16.06681295145428
ICS-EF (ISS DEB)        
1 45265U 98067RJ  22251.38713663  .00028964  00000+0  27940-3 0  9994
2 45265  51.6344 252.5120 0004089 124.7502 235.3879 15.66237052144627
RED-EYE 2 (MERLOT)      
1 45800U 98067RM  22251.32705632  .00066760  00000+0  37549-3 0  9992
2 45800  51.6350 238.6361 0003148  69.4252 290.7087 15.78589527126663
ISS DEB                 
1 47853U 98067RZ  22251.78384288  .00008971  00000+0  13807-3 0  9993
2 47853  51.6402 274.7867 0002010 339.8327  20.2585 15.55024229 84870
