[{
    "OBJECT_NAME": "AEROCUBE 12A",
    "OBJECT_ID": "2018-046C",
    "EPOCH": "2022-09-08T01:53:17.081088",
    "MEAN_MOTION": 15.4197912,
    "ECCENTRICITY": 0.000559,
    "INCLINATION": 51.6369,
    "RA_OF_ASC_NODE": 140.2653,
    "ARG_OF_PERICENTER": 343.2275,
    "MEAN_ANOMALY": 16.8525,
    "EPHEMERIS_TYPE": 0,
    "CLASSIFICATION_TYPE": "U",
    "NORAD_CAT_ID": 43556,
    "ELEMENT_SET_NO": 999,
    "REV_AT_EPOCH": 23205,
    "BSTAR": 0.000502,
    "MEAN_MOTION_DOT": 0.00021396,
    "MEAN_MOTION_DDOT": 0
},{
    "OBJECT_NAME": "AEROCUBE 12B",
    "OBJECT_ID": "2018-046D",
    "EPOCH": "2022-09-08T01:40:53.609088",
    "MEAN_MOTION": 15.39397867,
    "ECCENTRICITY": 0.0005905,
    "INCLINATION": 51.6372,
    "RA_OF_ASC_NODE": 146.127,
    "ARG_OF_PERICENTER": 338.7349,
    "MEAN_ANOMALY": 21.3389,
    "EPHEMERIS_TYPE": 0,
    "CLASSIFICATION_TYPE": "U",
    "NORAD_CAT_ID": 43557,
    "ELEMENT_SET_NO": 999,
    "REV_AT_EPOCH": 23192,
    "BSTAR": 0.00041059,
    "MEAN_MOTION_DOT": 0.00015963,
    "MEAN_MOTION_DDOT": 0
},{
    "OBJECT_NAME": "LEMUR-2-VU",
    "OBJECT_ID": "2018-046E",
    "EPOCH": "2022-09-08T20:06:48.514464",
    "MEAN_MOTION": 15.51742455,
    "ECCENTRICITY": 0.0004808,
    "INCLINATION": 51.6362,
    "RA_OF_ASC_NODE": 113.5779,
    "ARG_OF_PERICENTER": 348.1618,
    "MEAN_ANOMALY": 11.9258,
    "EPHEMERIS_TYPE": 0,
    "CLASSIFICATION_TYPE": "U",
    "NORAD_CAT_ID": 43558,
    "ELEMENT_SET_NO": 999,
    "REV_AT_EPOCH": 23247,
    "BSTAR": 0.0006829,
    "MEAN_MOTION_DOT": 0.00041232,
    "MEAN_MOTION_DDOT": 0
},{
    "OBJECT_NAME": "LEMUR-2-TOMHENDERSON",
    "OBJECT_ID": "2018-046H",
    "EPOCH": "2022-09-08T21:27:01.534464",
    "MEAN_MOTION": 15.49753402,
    "ECCENTRICITY": 0.0004376,
    "INCLINATION": 51.6381,
    "RA_OF_ASC_NODE": 117.6616,
    "ARG_OF_PERICENTER": 14.695,
    "MEAN_ANOMALY": 345.4165,
    "EPHEMERIS_TYPE": 0,
    "CLASSIFICATION_TYPE": "U",
    "NORAD_CAT_ID": 43561,
    "ELEMENT_SET_NO": 999,
    "REV_AT_EPOCH": 23198,
    "BSTAR": 0.00069168,
    "MEAN_MOTION_DOT": 0.00038879,
    "MEAN_MOTION_DDOT": 0
},{
    "OBJECT_NAME": "ISS DEB (SEDA-AP)",
    "OBJECT_ID": "1998-067PU",
    "EPOCH": "2022-09-08T20:49:53.551488",
    "MEAN_MOTION": 16.0815763,
    "ECCENTRICITY": 0.0003367,
    "INCLINATION": 51.6229,
    "RA_OF_ASC_NODE": 149.8022,
    "ARG_OF_PERICENTER": 206.1053,
    "MEAN_ANOMALY": 153.979,
    "EPHEMERIS_TYPE": 0,
    "CLASSIFICATION_TYPE": "U",
    "NORAD_CAT_ID": 43870,
    "ELEMENT_SET_NO": 999,
    "REV_AT_EPOCH": 21221,
    "BSTAR": 0.00050057,
    "MEAN_MOTION_DOT": 0.00429007,
    "MEAN_MOTION_DDOT": 0.0001005
},{
    "OBJECT_NAME": "STPSAT-4",
    "OBJECT_ID": "1998-067QY",
    "EPOCH": "2022-09-08T21:44:08.470176",
    "MEAN_MOTION": 15.94597064,
    "ECCENTRICITY": 0.000364,
    "INCLINATION": 51.6297,
    "RA_OF_ASC_NODE": 222.0227,
    "ARG_OF_PERICENTER": 99.3984,
    "MEAN_ANOMALY": 260.7436,
    "EPHEMERIS_TYPE": 0,
    "CLASSIFICATION_TYPE": "U",
    "NORAD_CAT_ID": 45043,
    "ELEMENT_SET_NO": 999,
    "REV_AT_EPOCH": 14872,
    "BSTAR": 0.00066632,
    "MEAN_MOTION_DOT": 0.00257051,
    "MEAN_MOTION_DDOT": 3.6771e-5
},{
    "OBJECT_NAME": "SORTIE",
    "OBJECT_ID": "1998-067RH",
    "EPOCH": "2022-09-08T08:55:20.322336",
    "MEAN_MOTION": 16.06681295,
    "ECCENTRICITY": 0.000219,
    "INCLINATION": 51.6346,
    "RA_OF_ASC_NODE": 216.2104,
    "ARG_OF_PERICENTER": 133.0298,
    "MEAN_ANOMALY": 227.0898,
    "EPHEMERIS_TYPE": 0,
    "CLASSIFICATION_TYPE": "U",
    "NORAD_CAT_ID": 45264,
    "ELEMENT_SET_NO": 999,
    "REV_AT_EPOCH": 14542,
    "BSTAR": 0.00065643,
    "MEAN_MOTION_DOT": 0.00512412,
    "MEAN_MOTION_DDOT": 0.00013779
},{
    "OBJECT_NAME": "ICS-EF (ISS DEB)",
    "OBJECT_ID": "1998-067RJ",
    "EPOCH": "2022-09-08T09:17:28.604832",
    "MEAN_MOTION": 15.66237052,
    "ECCENTRICITY": 0.0004089,
    "INCLINATION": 51.6344,
    "RA_OF_ASC_NODE": 252.512,
    "ARG_OF_PERICENTER": 124.7502,
    "MEAN_ANOMALY": 235.3879,
    "EPHEMERIS_TYPE": 0,
    "CLASSIFICATION_TYPE": "U",
    "NORAD_CAT_ID": 45265,
    "ELEMENT_SET_NO": 999,
    "REV_AT_EPOCH": 14462,
    "BSTAR": 0.0002794,
    "MEAN_MOTION_DOT": 0.00028964,
    "MEAN_MOTION_DDOT": 0
},{
    "OBJECT_NAME": "RED-EYE 2 (MERLOT)",
    "OBJECT_ID": "1998-067RM",
    "EPOCH": "2022-09-08T07:50:57.666048",
    "MEAN_MOTION": 15.78589527,
    "ECCENTRICITY": 0.0003148,
    "INCLINATION": 51.635,
    "RA_OF_ASC_NODE": 238.6361,
    "ARG_OF_PERICENTER": 69.4252,
    "MEAN_ANOMALY": 290.7087,
    "EPHEMERIS_TYPE": 0,
    "CLASSIFICATION_TYPE": "U",
    "NORAD_CAT_ID": 45800,
    "ELEMENT_SET_NO": 999,
    "REV_AT_EPOCH": 12666,
    "BSTAR": 0.00037549,
    "MEAN_MOTION_DOT": 0.0006676,
    "MEAN_MOTION_DDOT": 0
},{
    "OBJECT_NAME": "ISS DEB",
    "OBJECT_ID": "1998-067RZ",
    "EPOCH": "2022-09-08T18:48:44.024832",
    "MEAN_MOTION": 15.55024229,
    "ECCENTRICITY": 0.000201,
    "INCLINATION": 51.6402,
    "RA_OF_ASC_NODE": 274.7867,
    "ARG_OF_PERICENTER": 339.8327,
    "MEAN_ANOMALY": 20.2585,
    "EPHEMERIS_TYPE": 0,
    "CLASSIFICATION_TYPE": "U",
    "NORAD_CAT_ID": 47853,
    "ELEMENT_SET_NO": 999,
    "REV_AT_EPOCH": 8487,
    "BSTAR": 0.00013807,
    "MEAN_MOTION_DOT": 8.971e-5,
    "MEAN_MOTION_DDOT": 0
}]
